[{"OBJECT_NAME":"STARLINK-35621","OBJECT_ID":"2025-240L","EPOCH":"2026-03-09T10:04:01.217856","MEAN_MOTION":15.30193577,"ECCENTRICITY":0.0001578,"INCLINATION":53.1595,"RA_OF_ASC_NODE":64.3121,"ARG_OF_PERICENTER":94.7303,"MEAN_ANOMALY":265.3878,"EPHEMERIS_TYPE":0,"CLASSIFICATION_TYPE":"U","NORAD_CAT_ID":66156,"ELEMENT_SET_NO":999,"REV_AT_EPOCH":2194,"BSTAR":0.0008928967,"MEAN_MOTION_DOT":0.00026174,"MEAN_MOTION_DDOT":0},{"OBJECT_NAME":"D-SAT","OBJECT_ID":"2017-036AF","EPOCH":"2026-03-09T22:00:14.910336","MEAN_MOTION":15.15529522,"ECCENTRICITY":0.00852401,"INCLINATION":97.5487,"RA_OF_ASC_NODE":48.252,"ARG_OF_PERICENTER":144.4633,"MEAN_ANOMALY":216.2319,"EPHEMERIS_TYPE":0,"CLASSIFICATION_TYPE":"U","NORAD_CAT_ID":42794,"ELEMENT_SET_NO":999,"REV_AT_EPOCH":47581,"BSTAR":0.00038655305,"MEAN_MOTION_DOT":7.964e-5,"MEAN_MOTION_DDOT":0}]
